LEMUR-2-ANDIS           
1 42838U 17042P   26068.55941107  .00023598  00000+0  79875-3 0  9998
2 42838  97.3659 249.7950 0009101   4.3248 355.8070 15.30557934473198
STARLINK-30919          
1 58411U 23180K   26068.38373757 -.00002426  00000+0 -78684-4 0  9990
2 58411  43.0006  53.8200 0000786 271.1860  88.8902 15.27568602127487
